[{"OBJECT_NAME":"FLOCK 4BE-27","OBJECT_ID":"2024-149AX","EPOCH":"2026-03-09T18:04:53.053248","MEAN_MOTION":15.32593322,"ECCENTRICITY":0.00027324,"INCLINATION":97.3862,"RA_OF_ASC_NODE":150.6783,"ARG_OF_PERICENTER":305.898,"MEAN_ANOMALY":54.2008,"EPHEMERIS_TYPE":0,"CLASSIFICATION_TYPE":"U","NORAD_CAT_ID":60513,"ELEMENT_SET_NO":999,"REV_AT_EPOCH":8690,"BSTAR":0.00036576028,"MEAN_MOTION_DOT":0.00011439,"MEAN_MOTION_DDOT":0},{"OBJECT_NAME":"STARLINK-33682","OBJECT_ID":"2025-069A","EPOCH":"2026-03-09T11:46:47.350848","MEAN_MOTION":15.30201384,"ECCENTRICITY":0.00012279,"INCLINATION":53.1574,"RA_OF_ASC_NODE":143.4505,"ARG_OF_PERICENTER":74.1805,"MEAN_ANOMALY":285.9331,"EPHEMERIS_TYPE":0,"CLASSIFICATION_TYPE":"U","NORAD_CAT_ID":63433,"ELEMENT_SET_NO":999,"REV_AT_EPOCH":5337,"BSTAR":0.00092580896,"MEAN_MOTION_DOT":0.00027162,"MEAN_MOTION_DDOT":0}]
